#aV2006  9 12  0  0   .00000000      96 DD+AD WGS84 FIT  NGA
## 1392 172800.00000000   900.00000000 53990  .0000000000000
+   29     1  2  3  4  5  6  7  8  9 10 11 13 14 15 16 17 18
+         19 20 21 22 23 24 25 26 27 28 29 30  0  0  0  0  0
+          0  0  0  0  0  0  0  0  0  0  0  0  0  0  0  0  0
+          0  0  0  0  0  0  0  0  0  0  0  0  0  0  0  0  0
+          0  0  0  0  0  0  0  0  0  0  0  0  0  0  0  0  0
++         0  0  0  0  0  0  0  0  0  0  0  0  0  0  0  0  0
++         0  0  0  0  0  0  0  0  0  0  0  0  0  0  0  0  0
++         0  0  0  0  0  0  0  0  0  0  0  0  0  0  0  0  0
++         0  0  0  0  0  0  0  0  0  0  0  0  0  0  0  0  0
++         0  0  0  0  0  0  0  0  0  0  0  0  0  0  0  0  0
%c cc cc ccc ccc cccc cccc cccc cccc ccccc ccccc ccccc ccccc
%c cc cc ccc ccc cccc cccc cccc cccc ccccc ccccc ccccc ccccc
%f  0.0000000  0.000000000  0.00000000000  0.000000000000000
%f  0.0000000  0.000000000  0.00000000000  0.000000000000000
%i    0    0    0    0      0      0      0      0         0
%i    0    0    0    0      0      0      0      0         0
/*      NGA, ST. LOUIS,MO.                                  
/*   EPHEMERIS COMPUTED FROM  3 DAYS OF DATA                
/* CCCCCCCCCCCCCCCCCCCCCCCCCCCCCCCCCCCCCCCCCCCCCCCCCCCCCCCCC
/* CCCCCCCCCCCCCCCCCCCCCCCCCCCCCCCCCCCCCCCCCCCCCCCCCCCCCCCCC
*  2006  9 12 18 15   .00000000                                                 
P  1  15216.798936 -20360.410451  -7394.373613     76.328178                    
V  1  -2474.333597   9516.242924 -30543.036752       .022452                    
P  2 -17942.364605  12653.948852  14540.816343     34.169307                    
V  2 -19178.316934   -298.541018 -23250.703020       .038926                    
P  3  11091.043359 -23506.172981   4386.599113     89.236976                    
V  3   2101.695480   6852.360248  30500.711239       .756685                    
P  4 -25849.310592   5525.841191   4070.924266    308.998770                    
V  4  -5436.186897  -2337.258462 -30685.738269       .058097                    
P  5  10726.524391  22585.413370  -9420.317500    340.471408                    
V  5  -9942.229284  -6752.298280 -28005.804611       .128402                    
P  6  11373.144441  12673.549606  20564.087994    596.283705                    
V  6 -10381.880210  23636.016313  -8970.971175      -.033418                    
P  7  17392.019132 -11383.183071  16929.666597    527.448477                    
V  7  -5147.882106  20358.278322  19271.573947      -.041423                    
P  8 -26458.759843   -756.690901   3982.569886    -79.408667                    
V  8   5004.768057  -2393.038446  31246.631867      -.013693                    
P  9   2048.027614  15324.580510 -22166.126026     35.843308                    
V  9 -26490.150519   3981.872376    566.741211       .015263                    
P 10  -5401.691820  16166.076746  20188.648776     89.573505                    
V 10 -15890.789040 -20487.554468  12394.836956       .005821                    
P 11  -6049.826845 -15552.467796 -20747.283346    349.936460                    
V 11  25469.208886  -7216.747240  -1756.801043       .019555                    
P 13 -10168.896787 -11509.890997  21583.783092     93.753051                    
V 13  11977.707366 -24791.781399  -7504.238221       .033709                    
P 14  16957.864803  -6934.620687 -19132.848402     -5.683457                    
V 14  -9026.983027  22695.891095 -16234.581793       .007094                    
P 15  26626.834874    828.823424   2739.538997     -1.357143                    
V 15  -3492.484538   2767.064720  31100.968632      -.029487                    
P 16   8788.619769 -13198.878839  21369.870437     72.593924                    
V 16  16364.104856  21436.843378   6652.191288       .032965                    
P 17 -17286.482800   6125.039361 -19179.501759     96.007619                    
V 17   8429.548844 -22919.734779 -15021.514402      -.010281                    
P 18  18988.809533  16262.244204  -9316.428907   -248.760992                    
V 18   4671.021602  11219.904409  28413.512461      -.009041                    
P 19   7077.947140 -24603.724799  -6824.622426     15.149510                    
V 19   6515.439913  -6594.280172  30132.300274       .031182                    
P 20 -12929.965493 -22716.246937  -4883.758444    -22.585452                    
V 20   5961.925121   3119.139965 -30824.125109       .002195                    
P 21  23787.661063   6044.373670  10901.504305     52.250919                    
V 21 -13321.146140   3595.595974  26737.667935       .018455                    
P 22  18412.735609   3825.423191 -18606.244942    133.593342                    
V 22  12013.502551  20800.807545  16001.975051       .030568                    
P 23  -2739.864501 -21034.706545  15775.159649    137.864947                    
V 23   9753.323821 -17852.568548 -22165.405845       .001503                    
P 24 -26667.745122    901.981248  -1183.170172     35.556050                    
V 24   1591.106079  -2762.774257 -31466.393204       .028536                    
P 25  22103.720318 -11658.036469   9608.138726    327.091716                    
V 25  11866.134424     15.546564 -28316.544427       .193786                    
P 26  -7071.184966  24634.621841  -6089.331839   -251.763091                    
V 26  -5066.775716   5699.190844  31542.266794      -.146804                    
P 27 -22161.599557  -6109.280101  14176.105474     67.503538                    
V 27  16276.942917  -4753.771525  24161.216723       .018461                    
P 28 -19488.817622  -7911.392007 -16129.085722     18.851006                    
V 28 -10705.267981 -18031.165141  21046.674974      -.008582                    
P 29  -9077.991800  24689.757822  -1932.065843    -64.094013                    
V 29  -3116.297227   1661.896286  32419.588325      -.728517                    
P 30  18220.830628  19105.941257   3138.070005      9.832562                    
V 30    209.447735   5391.225905 -30993.776063       .012736                    
EOF
